start=new Date('2022-12-30T00:00:00.000Z').valueOf();
sats=[{"CENTER_NAME":"EARTH","EPHEMERIS_TYPE":"0","PERIAPSIS":"545.595","REF_FRAME":"TEME","PERIOD":"95.593","MEAN_ELEMENT_THEORY":"SGP4","RA_OF_ASC_NODE":"27.1177","TLE_LINE1":"1 48476U 21040BA  22363.44197005 -.00001618  00000-0 -89724-4 0  9994","INCLINATION":"53.0566","MEAN_MOTION_DOT":"-0.00001618","SEMIMAJOR_AXIS":"6925.389","OBJECT_TYPE":"PAYLOAD","MEAN_MOTION":"15.06386658","MEAN_ANOMALY":"319.5039","FILE":"3725790","COUNTRY_CODE":"US","CLASSIFICATION_TYPE":"U","ARG_OF_PERICENTER":"40.6129","LAUNCH_DATE":"2021-05-09","MEAN_MOTION_DDOT":"0.0000000000000","SITE":"AFETR","TLE_LINE2":"2 48476  53.0566  27.1177 0002396  40.6129 319.5039 15.06386658 90707","NORAD_CAT_ID":"48476","TIME_SYSTEM":"UTC","GP_ID":"221738182","REV_AT_EPOCH":"9070","APOAPSIS":"548.914","BSTAR":"-0.00008972400000","OBJECT_ID":"2021-040BA","EPOCH":"2022-12-29T10:36:26.212320","ECCENTRICITY":"0.00023960","ELEMENT_SET_NO":"999","RCS_SIZE":"LARGE","DECAY_DATE":null,"OBJECT_NAME":"STARLINK-2723"},{"EPHEMERIS_TYPE":"0","CENTER_NAME":"EARTH","PERIAPSIS":"545.320","REF_FRAME":"TEME","PERIOD":"95.592","INCLINATION":"53.0561","MEAN_MOTION_DOT":"-0.00002886","RA_OF_ASC_NODE":"25.6855","MEAN_ELEMENT_THEORY":"SGP4","TLE_LINE1":"1 48478U 21040BC  22363.75895815 -.00002886  00000-0 -17487-3 0  9998","MEAN_MOTION":"15.06394981","MEAN_ANOMALY":"325.1041","SEMIMAJOR_AXIS":"6925.364","OBJECT_TYPE":"PAYLOAD","CLASSIFICATION_TYPE":"U","ARG_OF_PERICENTER":"35.0129","FILE":"3725997","COUNTRY_CODE":"US","TIME_SYSTEM":"UTC","REV_AT_EPOCH":"9135","GP_ID":"221746379","MEAN_MOTION_DDOT":"0.0000000000000","LAUNCH_DATE":"2021-05-09","TLE_LINE2":"2 48478  53.0561  25.6855 0002756  35.0129 325.1041 15.06394981 91354","SITE":"AFETR","NORAD_CAT_ID":"48478","APOAPSIS":"549.138","BSTAR":"-0.00017487000000","OBJECT_ID":"2021-040BC","RCS_SIZE":"LARGE","ELEMENT_SET_NO":"999","DECAY_DATE":null,"OBJECT_NAME":"STARLINK-2728","EPOCH":"2022-12-29T18:12:53.984160","ECCENTRICITY":"0.00027560"},{"GP_ID":"221736681","REV_AT_EPOCH":"9071","TIME_SYSTEM":"UTC","NORAD_CAT_ID":"48479","TLE_LINE2":"2 48479  53.0541  26.8986 0002008  39.4245 320.6890 15.06395689 90715","SITE":"AFETR","LAUNCH_DATE":"2021-05-09","MEAN_MOTION_DDOT":"0.0000000000000","ARG_OF_PERICENTER":"39.4245","CLASSIFICATION_TYPE":"U","COUNTRY_CODE":"US","FILE":"3725790","OBJECT_NAME":"STARLINK-2755","DECAY_DATE":null,"RCS_SIZE":"LARGE","ELEMENT_SET_NO":"999","ECCENTRICITY":"0.00020080","EPOCH":"2022-12-29T11:45:25.364160","OBJECT_ID":"2021-040BD","BSTAR":"-0.00044621000000","APOAPSIS":"548.617","REF_FRAME":"TEME","PERIOD":"95.592","PERIAPSIS":"545.836","EPHEMERIS_TYPE":"0","CENTER_NAME":"EARTH","MEAN_ANOMALY":"320.6890","MEAN_MOTION":"15.06395689","OBJECT_TYPE":"PAYLOAD","SEMIMAJOR_AXIS":"6925.362","MEAN_MOTION_DOT":"-0.00006921","INCLINATION":"53.0541","TLE_LINE1":"1 48479U 21040BD  22363.48987690 -.00006921  00000-0 -44621-3 0  9996","MEAN_ELEMENT_THEORY":"SGP4","RA_OF_ASC_NODE":"26.8986"},{"TIME_SYSTEM":"UTC","REV_AT_EPOCH":"9057","GP_ID":"221737932","SITE":"AFETR","TLE_LINE2":"2 48480  53.0569  36.8403 0002680  32.1294 327.9858 15.06392746 90571","LAUNCH_DATE":"2021-05-09","MEAN_MOTION_DDOT":"0.0000000000000","NORAD_CAT_ID":"48480","CLASSIFICATION_TYPE":"U","ARG_OF_PERICENTER":"32.1294","FILE":"3725790","COUNTRY_CODE":"US","RCS_SIZE":"LARGE","ELEMENT_SET_NO":"999","OBJECT_NAME":"STARLINK-2690","DECAY_DATE":null,"EPOCH":"2022-12-29T12:03:58.496832","ECCENTRICITY":"0.00026800","APOAPSIS":"549.092","OBJECT_ID":"2021-040BE","BSTAR":"-0.00018724000000","PERIAPSIS":"545.380","PERIOD":"95.593","REF_FRAME":"TEME","EPHEMERIS_TYPE":"0","CENTER_NAME":"EARTH","MEAN_MOTION":"15.06392746","MEAN_ANOMALY":"327.9858","SEMIMAJOR_AXIS":"6925.371","OBJECT_TYPE":"PAYLOAD","MEAN_MOTION_DOT":"-0.00003069","INCLINATION":"53.0569","MEAN_ELEMENT_THEORY":"SGP4","RA_OF_ASC_NODE":"36.8403","TLE_LINE1":"1 48480U 21040BE  22363.50276038 -.00003069  00000-0 -18724-3 0  9993"},{"APOAPSIS":"548.805","OBJECT_ID":"2021-040BF","BSTAR":"-0.00004057500000","EPOCH":"2022-12-29T03:30:31.816512","ECCENTRICITY":"0.00022790","RCS_SIZE":"LARGE","ELEMENT_SET_NO":"999","OBJECT_NAME":"STARLINK-2706","DECAY_DATE":null,"FILE":"3725790","COUNTRY_CODE":"US","CLASSIFICATION_TYPE":"U","ARG_OF_PERICENTER":"45.7993","SITE":"AFETR","TLE_LINE2":"2 48481  53.0567  38.7232 0002279  45.7993 314.3183 15.06395643 90515","LAUNCH_DATE":"2021-05-09","MEAN_MOTION_DDOT":"0.0000000000000","NORAD_CAT_ID":"48481","TIME_SYSTEM":"UTC","GP_ID":"221737683","REV_AT_EPOCH":"9051","MEAN_ELEMENT_THEORY":"SGP4","RA_OF_ASC_NODE":"38.7232","TLE_LINE1":"1 48481U 21040BF  22363.14620158 -.00000886  00000-0 -40575-4 0  9994","MEAN_MOTION_DOT":"-0.00000886","INCLINATION":"53.0567","SEMIMAJOR_AXIS":"6925.362","OBJECT_TYPE":"PAYLOAD","MEAN_MOTION":"15.06395643","MEAN_ANOMALY":"314.3183","CENTER_NAME":"EARTH","EPHEMERIS_TYPE":"0","PERIAPSIS":"545.649","PERIOD":"95.592","REF_FRAME":"TEME"},{"CENTER_NAME":"EARTH","EPHEMERIS_TYPE":"0","REF_FRAME":"TEME","PERIOD":"95.592","PERIAPSIS":"546.233","TLE_LINE1":"1 48482U 21040BG  22363.37838183 -.00002347  00000-0 -13874-3 0  9994","RA_OF_ASC_NODE":"37.4037","MEAN_ELEMENT_THEORY":"SGP4","MEAN_MOTION_DOT":"-0.00002347","INCLINATION":"53.0541","OBJECT_TYPE":"PAYLOAD","SEMIMAJOR_AXIS":"6925.358","MEAN_ANOMALY":"281.7101","MEAN_MOTION":"15.06396937","COUNTRY_CODE":"US","FILE":"3725790","ARG_OF_PERICENTER":"78.4048","CLASSIFICATION_TYPE":"U","NORAD_CAT_ID":"48482","TLE_LINE2":"2 48482  53.0541  37.4037 0001430  78.4048 281.7101 15.06396937 90557","SITE":"AFETR","LAUNCH_DATE":"2021-05-09","MEAN_MOTION_DDOT":"0.0000000000000","REV_AT_EPOCH":"9055","GP_ID":"221736931","TIME_SYSTEM":"UTC","OBJECT_ID":"2021-040BG","BSTAR":"-0.00013874000000","APOAPSIS":"548.213","ECCENTRICITY":"0.00014300","EPOCH":"2022-12-29T09:04:52.190112","OBJECT_NAME":"STARLINK-2525","DECAY_DATE":null,"RCS_SIZE":"LARGE","ELEMENT_SET_NO":"999"},{"TIME_SYSTEM":"UTC","GP_ID":"221737181","REV_AT_EPOCH":"9057","TLE_LINE2":"2 48483  53.0533  36.8233 0001728  52.0028 308.1117 15.06393385 90573","SITE":"AFETR","MEAN_MOTION_DDOT":"0.0000000000000","LAUNCH_DATE":"2021-05-09","NORAD_CAT_ID":"48483","CLASSIFICATION_TYPE":"U","ARG_OF_PERICENTER":"52.0028","FILE":"3725790","COUNTRY_CODE":"US","RCS_SIZE":"LARGE","ELEMENT_SET_NO":"999","OBJECT_NAME":"STARLINK-2531","DECAY_DATE":null,"EPOCH":"2022-12-29T12:10:38.665344","ECCENTRICITY":"0.00017280","APOAPSIS":"548.431","OBJECT_ID":"2021-040BH","BSTAR":"-0.00007761300000","PERIAPSIS":"546.037","REF_FRAME":"TEME","PERIOD":"95.593","EPHEMERIS_TYPE":"0","CENTER_NAME":"EARTH","MEAN_MOTION":"15.06393385","MEAN_ANOMALY":"308.1117","SEMIMAJOR_AXIS":"6925.369","OBJECT_TYPE":"PAYLOAD","MEAN_MOTION_DOT":"-0.00001437","INCLINATION":"53.0533","MEAN_ELEMENT_THEORY":"SGP4","RA_OF_ASC_NODE":"36.8233","TLE_LINE1":"1 48483U 21040BH  22363.50739196 -.00001437  00000-0 -77613-4 0  9995"},{"TLE_LINE2":"2 48484  53.0561  37.7300 0002058  44.6863 315.4292 15.06397218 90553","SITE":"AFETR","MEAN_MOTION_DDOT":"0.0000000000000","LAUNCH_DATE":"2021-05-09","NORAD_CAT_ID":"48484","TIME_SYSTEM":"UTC","GP_ID":"221737433","REV_AT_EPOCH":"9055","FILE":"3725790","COUNTRY_CODE":"US","CLASSIFICATION_TYPE":"U","ARG_OF_PERICENTER":"44.6863","EPOCH":"2022-12-29T09:15:33.083712","ECCENTRICITY":"0.00020580","RCS_SIZE":"LARGE","ELEMENT_SET_NO":"999","OBJECT_NAME":"STARLINK-2696","DECAY_DATE":null,"APOAPSIS":"548.647","OBJECT_ID":"2021-040BJ","BSTAR":"-0.00013649000000","PERIAPSIS":"545.797","PERIOD":"95.592","REF_FRAME":"TEME","CENTER_NAME":"EARTH","EPHEMERIS_TYPE":"0","SEMIMAJOR_AXIS":"6925.357","OBJECT_TYPE":"PAYLOAD","MEAN_MOTION":"15.06397218","MEAN_ANOMALY":"315.4292","RA_OF_ASC_NODE":"37.7300","MEAN_ELEMENT_THEORY":"SGP4","TLE_LINE1":"1 48484U 21040BJ  22363.38579958 -.00002314  00000-0 -13649-3 0  9993","MEAN_MOTION_DOT":"-0.00002314","INCLINATION":"53.0561"},{"CLASSIFICATION_TYPE":"U","ARG_OF_PERICENTER":"38.3315","FILE":"3725790","COUNTRY_CODE":"US","TIME_SYSTEM":"UTC","GP_ID":"221738183","REV_AT_EPOCH":"9057","LAUNCH_DATE":"2021-05-09","MEAN_MOTION_DDOT":"0.0000000000000","TLE_LINE2":"2 48485  53.0575  36.7961 0002292  38.3315 321.7837 15.06391695 90573","SITE":"AFETR","NORAD_CAT_ID":"48485","APOAPSIS":"548.826","BSTAR":"-0.00015422000000","OBJECT_ID":"2021-040BK","RCS_SIZE":"LARGE","ELEMENT_SET_NO":"999","DECAY_DATE":null,"OBJECT_NAME":"STARLINK-2500","EPOCH":"2022-12-29T12:21:15.828192","ECCENTRICITY":"0.00022920","EPHEMERIS_TYPE":"0","CENTER_NAME":"EARTH","PERIAPSIS":"545.652","REF_FRAME":"TEME","PERIOD":"95.593","INCLINATION":"53.0575","MEAN_MOTION_DOT":"-0.00002578","RA_OF_ASC_NODE":"36.7961","MEAN_ELEMENT_THEORY":"SGP4","TLE_LINE1":"1 48485U 21040BK  22363.51476653 -.00002578  00000-0 -15422-3 0  9990","MEAN_MOTION":"15.06391695","MEAN_ANOMALY":"321.7837","SEMIMAJOR_AXIS":"6925.374","OBJECT_TYPE":"PAYLOAD"},{"BSTAR":"-0.00009999600000","OBJECT_ID":"2021-040BL","APOAPSIS":"548.789","DECAY_DATE":null,"OBJECT_NAME":"STARLINK-2496","RCS_SIZE":"LARGE","ELEMENT_SET_NO":"999","ECCENTRICITY":"0.00022490","EPOCH":"2022-12-29T12:25:12.444960","ARG_OF_PERICENTER":"46.7944","CLASSIFICATION_TYPE":"U","COUNTRY_CODE":"US","FILE":"3725790","GP_ID":"221736432","REV_AT_EPOCH":"9057","TIME_SYSTEM":"UTC","NORAD_CAT_ID":"48486","LAUNCH_DATE":"2021-05-09","MEAN_MOTION_DDOT":"0.0000000000000","TLE_LINE2":"2 48486  53.0572  36.7657 0002249  46.7944 313.3232 15.06394116 90573","SITE":"AFETR","INCLINATION":"53.0572","MEAN_MOTION_DOT":"-0.00001771","TLE_LINE1":"1 48486U 21040BL  22363.51750515 -.00001771  00000-0 -99996-4 0  9996","MEAN_ELEMENT_THEORY":"SGP4","RA_OF_ASC_NODE":"36.7657","MEAN_ANOMALY":"313.3232","MEAN_MOTION":"15.06394116","OBJECT_TYPE":"PAYLOAD","SEMIMAJOR_AXIS":"6925.367","EPHEMERIS_TYPE":"0","CENTER_NAME":"EARTH","PERIOD":"95.593","REF_FRAME":"TEME","PERIAPSIS":"545.674"}];
